NORAD_CAT_ID,OBJECT_NAME,OBJECT_TYPE,EPOCH,MEAN_MOTION,ECCENTRICITY,INCLINATION,RA_OF_ASC_NODE,ARG_OF_PERICENTER,MEAN_ANOMALY,BSTAR,MEAN_MOTION_DOT,MEAN_MOTION_DDOT,TLE_LINE0,TLE_LINE1,TLE_LINE2,SEMIMAJOR_AXIS,PERIOD,APOGEE,PERIGEE,DECAYED
53389.0,STARLINK-4523,PAYLOAD,2023-01-18 21:29:14,15.08843834,0.0002306,53.214,227.8013,35.6932,324.4214,0.00026002,3.853e-05,0.0,0 STARLINK-4523,1 53389U 22097B   23018.89531225  .00003853  00000-0  26002-3 0  9999,2 53389  53.2140 227.8013 0002306  35.6932 324.4214 15.08843834 25042,6917.869000000001,95.437,541.3290000000001,538.138,0.0
53389.0,STARLINK-4523,PAYLOAD,2023-01-18 23:04:38,15.08832388,0.0001821,53.2138,227.5037,42.3923,317.721,-1.3680999999999998e-05,-5.06e-06,0.0,0 STARLINK-4523,1 53389U 22097B   23018.96155362 -.00000506  00000-0 -13681-4 0  9995,2 53389  53.2138 227.5037 0001821  42.3923 317.7210 15.08832388 25052,6917.904,95.438,541.028,538.509,0.0
53389.0,STARLINK-4523,PAYLOAD,2023-01-19 07:01:34,15.08818359,0.0001561999999999,53.2133,226.017,46.6078,313.5044,-0.00023982,-4.1e-05,0.0,0 STARLINK-4523,1 53389U 22097B   23019.29276331 -.00004100  00000-0 -23982-3 0  9990,2 53389  53.2133 226.0170 0001562  46.6078 313.5044 15.08818359 25106,6917.946999999999,95.439,540.8919999999999,538.731,0.0
53389.0,STARLINK-4523,PAYLOAD,2023-01-19 13:23:07,15.08818893,0.0001464,53.213,224.8272,48.2731,311.8386,-0.00016599,-2.927e-05,0.0,0 STARLINK-4523,1 53389U 22097B   23019.55772661 -.00002927  00000-0 -16599-3 0  9997,2 53389  53.2130 224.8272 0001464  48.2731 311.8386 15.08818893 25795,6917.945,95.439,540.823,538.797,0.0
53389.0,STARLINK-4523,PAYLOAD,2023-01-20 06:52:22,15.08833439,0.000159,53.2135,221.556,51.6171,308.4964,0.00024651,3.637e-05,0.0,0 STARLINK-4523,1 53389U 22097B   23020.28637068  .00003637  00000-0  24651-3 0  9995,2 53389  53.2135 221.5560 0001590  51.6171 308.4964 15.08833439 25258,6917.9,95.438,540.865,538.665,0.0
53389.0,STARLINK-4523,PAYLOAD,2023-01-20 22:46:13,15.08859999,0.0001626,53.2128,218.5831,47.9567,312.1564,0.0011797,0.00018547,0.0,0 STARLINK-4523,1 53389U 22097B   23020.94877001  .00018547  00000-0  11797-2 0  9993,2 53389  53.2128 218.5831 0001626  47.9567 312.1564 15.08859999 25352,6917.819,95.436,540.809,538.559,0.0
53389.0,STARLINK-4523,PAYLOAD,2023-01-21 16:15:27,15.08875024,0.0001696,53.2129,215.3116,47.9878,312.1258,0.00092173,0.00014426,0.0,0 STARLINK-4523,1 53389U 22097B   23021.67739849  .00014426  00000-0  92173-3 0  9991,2 53389  53.2129 215.3116 0001696  47.9878 312.1258 15.08875024 25465,6917.773,95.435,540.812,538.465,0.0
53389.0,STARLINK-4523,PAYLOAD,2023-01-22 12:55:27,15.08863707,0.0001575,53.2135,211.4443,67.4854,292.6305,0.0003261,4.909e-05,0.0,0 STARLINK-4523,1 53389U 22097B   23022.53850893  .00004909  00000-0  32610-3 0  9995,2 53389  53.2135 211.4443 0001575  67.4854 292.6305 15.08863707 25593,6917.808000000001,95.436,540.762,538.5830000000001,0.0
53389.0,STARLINK-4523,PAYLOAD,2023-01-22 19:16:59,15.08852384,0.0001575,53.2143,210.2553,54.361,305.7529,-3.2976e-05,-8.13e-06,0.0,0 STARLINK-4523,1 53389U 22097B   23022.80346949 -.00000813  00000-0 -32976-4 0  9995,2 53389  53.2143 210.2553 0001575  54.3610 305.7529 15.08852384 25634,6917.843000000001,95.437,540.797,538.618,0.0
53389.0,STARLINK-4523,PAYLOAD,2023-01-23 12:46:14,15.08841922,0.0001526,53.2143,206.9848,57.7456,302.3684,-0.00010042,-1.886e-05,0.0,0 STARLINK-4523,1 53389U 22097B   23023.53211176 -.00001886  00000-0 -10042-3 0  9999,2 53389  53.2143 206.9848 0001526  57.7456 302.3684 15.08841922 25747,6917.875,95.437,540.795,538.684,0.0
53389.0,STARLINK-4523,PAYLOAD,2023-01-24 18:58:34,15.08839153,0.0001463,53.2156,201.335,59.8235,300.2902,6.1417e-05,6.900000000000001e-06,0.0,0 STARLINK-4523,1 53389U 22097B   23024.79067409  .00000690  00000-0  61417-4 0  9999,2 53389  53.2156 201.3350 0001463  59.8235 300.2902 15.08839153 25930,6917.883000000001,95.438,540.76,538.736,0.0
53389.0,STARLINK-4523,PAYLOAD,2023-01-25 12:27:49,15.08836227,0.0001392,53.2157,198.0634,61.511,298.6022,4.2245e-05,3.84e-06,0.0,0 STARLINK-4523,1 53389U 22097B   23025.51931778  .00000384  00000-0  42245-4 0  9997,2 53389  53.2157 198.0634 0001392  61.5110 298.6022 15.08836227 26697,6917.892,95.438,540.72,538.794,0.0
53389.0,STARLINK-4523,PAYLOAD,2023-01-25 17:13:58,15.08835049,0.0001274999999999,53.2171,197.1726,59.1992,300.9125,3.5803e-05,2.82e-06,0.0,0 STARLINK-4523,1 53389U 22097B   23025.71803907  .00000282  00000-0  35803-4 0  9990,2 53389  53.2171 197.1726 0001275  59.1992 300.9125 15.08835049 26070,6917.896,95.438,540.643,538.878,0.0
53389.0,STARLINK-4523,PAYLOAD,2023-01-26 12:18:37,15.0882564,0.0001429,53.2159,193.6034,67.3568,292.7575,-2.8007e-05,-7.33e-06,0.0,0 STARLINK-4523,1 53389U 22097B   23026.51293330 -.00000733  00000-0 -28007-4 0  9993,2 53389  53.2159 193.6034 0001429  67.3568 292.7575 15.08825640 26848,6917.924,95.438,540.778,538.8009999999999,0.0
53389.0,STARLINK-4523,PAYLOAD,2023-01-26 15:29:23,15.08825613,0.0001416999999999,53.2158,193.0088,62.543,297.5706,-2.4665e-05,-6.8e-06,0.0,0 STARLINK-4523,1 53389U 22097B   23026.64541448 -.00000680  00000-0 -24665-4 0  9990,2 53389  53.2158 193.0088 0001417  62.5430 297.5706 15.08825613 26212,6917.924,95.438,540.77,538.809,0.0
53389.0,STARLINK-4523,PAYLOAD,2023-01-27 04:12:28,15.08833556,0.0001289,53.2152,190.6287,67.5235,292.5893,4.1408e-05,3.71e-06,0.0,0 STARLINK-4523,1 53389U 22097B   23027.17533025  .00000371  00000-0  41408-4 0  9990,2 53389  53.2152 190.6287 0001289  67.5235 292.5893 15.08833556 26290,6917.9,95.438,540.6569999999999,538.873,0.0
53389.0,STARLINK-4523,PAYLOAD,2023-01-27 10:34:00,15.08836018,0.0001169,53.2154,189.4392,63.6601,296.4511,8.709299999999999e-05,1.098e-05,0.0,0 STARLINK-4523,1 53389U 22097B   23027.44028787  .00001098  00000-0  87093-4 0  9991,2 53389  53.2154 189.4392 0001169  63.6601 296.4511 15.08836018 26988,6917.893,95.438,540.566,538.9490000000001,0.0
53389.0,STARLINK-4523,PAYLOAD,2023-01-27 16:55:33,15.08837562,0.0001349,53.2156,188.2511,59.6233,300.4892,0.00019611,2.834e-05,0.0,0 STARLINK-4523,1 53389U 22097B   23027.70524523  .00002834  00000-0  19611-3 0  9998,2 53389  53.2156 188.2511 0001349  59.6233 300.4892 15.08837562 26372,6917.888000000001,95.438,540.686,538.82,0.0
53389.0,STARLINK-4523,PAYLOAD,2023-01-28 13:35:33,15.08848037,0.0001141,53.2153,184.384,63.7717,296.3392,0.00023701,3.487e-05,0.0,0 STARLINK-4523,1 53389U 22097B   23028.56635838  .00003487  00000-0  23701-3 0  9995,2 53389  53.2153 184.3840 0001141  63.7717 296.3392 15.08848037 27158,6917.856,95.437,540.51,538.931,0.0
53389.0,STARLINK-4523,PAYLOAD,2023-01-28 19:57:05,15.08859909,0.0001239,53.2146,183.1943,64.4551,295.657,0.00041332,6.3e-05,0.0,0 STARLINK-4523,1 53389U 22097B   23028.83131676  .00006300  00000-0  41332-3 0  9993,2 53389  53.2146 183.1943 0001239  64.4551 295.6570 15.08859909 26545,6917.82,95.436,540.542,538.827,0.0
53389.0,STARLINK-4523,PAYLOAD,2023-01-29 13:26:20,15.08846458,0.0001382,53.2135,179.9174,111.7621,248.3519,8.6892e-05,1.095e-05,0.0,0 STARLINK-4523,1 53389U 22097B   23029.55995873  .00001095  00000-0  86892-4 0  9997,2 53389  53.2135 179.9174 0001382 111.7621 248.3519 15.08846458 26650,6917.861,95.437,540.682,538.77,0.0
53389.0,STARLINK-4523,PAYLOAD,2023-01-29 19:47:52,15.08846756,0.0001179,53.2149,178.7341,68.1774,291.9344,5.321e-06,-2.03e-06,0.0,0 STARLINK-4523,1 53389U 22097B   23029.82491874 -.00000203  00000-0  53210-5 0  9999,2 53389  53.2149 178.7341 0001179  68.1774 291.9344 15.08846756 27344,6917.86,95.437,540.54,538.909,0.0
53389.0,STARLINK-4523,PAYLOAD,2023-01-30 10:06:21,15.0884133,0.0001172,53.2148,176.0565,83.1663,276.9463,-9.2493e-05,-1.76e-05,0.0,0 STARLINK-4523,1 53389U 22097B   23030.42107969 -.00001760  00000-0 -92493-4 0  9991,2 53389  53.2148 176.0565 0001172  83.1663 276.9463 15.08841330 26784,6917.876,95.437,540.552,538.931,0.0
53389.0,STARLINK-4523,PAYLOAD,2023-01-30 19:38:39,15.08849065,0.0001179,53.2149,174.2709,94.5182,265.5945,-2.7391e-06,-3.31e-06,0.0,0 STARLINK-4523,1 53389U 22097B   23030.81851408 -.00000331  00000-0 -27391-5 0  9997,2 53389  53.2149 174.2709 0001179  94.5182 265.5945 15.08849065 26843,6917.853,95.437,540.533,538.902,0.0
53389.0,STARLINK-4523,PAYLOAD,2023-01-31 02:00:12,15.0884106,0.0001242,53.2133,173.082,90.0377,270.0757,-4.964e-05,-1.078e-05,0.0,0 STARLINK-4523,1 53389U 22097B   23031.08347774 -.00001078  00000-0 -49640-4 0  9992,2 53389  53.2133 173.0820 0001242  90.0377 270.0757 15.08841060 26888,6917.877,95.437,540.601,538.883,0.0
53389.0,STARLINK-4523,PAYLOAD,2023-01-31 09:57:08,15.08838916,0.0001196,53.2132,171.5942,84.5389,275.574,8.3985e-05,1.049e-05,0.0,0 STARLINK-4523,1 53389U 22097B   23031.41468054  .00001049  00000-0  83985-4 0  9990,2 53389  53.2132 171.5942 0001196  84.5389 275.5740 15.08838916 27580,6917.884,95.438,540.576,538.921,0.0
53389.0,STARLINK-4523,PAYLOAD,2023-01-31 19:29:26,15.08846091,0.0001246,53.2148,169.8124,85.9005,274.213,0.00017815,2.549e-05,0.0,0 STARLINK-4523,1 53389U 22097B   23031.81211625  .00002549  00000-0  17815-3 0  9998,2 53389  53.2148 169.8124 0001246  85.9005 274.2130 15.08846091 27644,6917.862,95.437,540.589,538.865,0.0
53389.0,STARLINK-4523,PAYLOAD,2023-02-01 09:47:55,15.08841854,0.0001118,53.2142,167.1366,79.7524,280.3594,-4.6147e-06,-3.61e-06,0.0,0 STARLINK-4523,1 53389U 22097B   23032.40827881 -.00000361  00000-0 -46147-5 0  9995,2 53389  53.2142 167.1366 0001118  79.7524 280.3594 15.08841854 27084,6917.875,95.437,540.513,538.966,0.0
53389.0,STARLINK-4523,PAYLOAD,2023-02-01 12:58:41,15.08843828,0.0001039,53.2146,166.5419,76.7042,283.4066,-7.6538e-07,-3e-06,0.0,0 STARLINK-4523,1 53389U 22097B   23032.54075707 -.00000300  00000-0 -76538-6 0  9993,2 53389  53.2146 166.5419 0001039  76.7042 283.4066 15.08843828 27759,6917.869,95.437,540.452,539.015,0.0
